[{"OBJECT_NAME":"OBJECT D","OBJECT_ID":"2024-174D","EPOCH":"2026-03-10T00:15:10.483200","MEAN_MOTION":15.28039787,"ECCENTRICITY":0.00110644,"INCLINATION":97.4441,"RA_OF_ASC_NODE":80.4677,"ARG_OF_PERICENTER":212.9968,"MEAN_ANOMALY":147.0582,"EPHEMERIS_TYPE":0,"CLASSIFICATION_TYPE":"U","NORAD_CAT_ID":61241,"ELEMENT_SET_NO":999,"REV_AT_EPOCH":8076,"BSTAR":0.00036340099,"MEAN_MOTION_DOT":9.884e-5,"MEAN_MOTION_DDOT":0},{"OBJECT_NAME":"STARLINK-34148","OBJECT_ID":"2025-110R","EPOCH":"2026-03-09T07:09:25.099488","MEAN_MOTION":15.30202129,"ECCENTRICITY":0.00013984,"INCLINATION":53.1605,"RA_OF_ASC_NODE":28.5011,"ARG_OF_PERICENTER":85.5647,"MEAN_ANOMALY":274.5513,"EPHEMERIS_TYPE":0,"CLASSIFICATION_TYPE":"U","NORAD_CAT_ID":64111,"ELEMENT_SET_NO":999,"REV_AT_EPOCH":4582,"BSTAR":0.00055698401,"MEAN_MOTION_DOT":0.00016174,"MEAN_MOTION_DDOT":0}]
